[{"OBJECT_NAME":"SL-16 R/B","OBJECT_ID":"1993-059B","EPOCH":"2026-03-29T02:21:47.432160","MEAN_MOTION":14.17234899,"ECCENTRICITY":0.0017394,"INCLINATION":70.9918,"RA_OF_ASC_NODE":330.2002,"ARG_OF_PERICENTER":188.3592,"MEAN_ANOMALY":171.7245,"EPHEMERIS_TYPE":0,"CLASSIFICATION_TYPE":"U","NORAD_CAT_ID":22803,"ELEMENT_SET_NO":999,"REV_AT_EPOCH":68228,"BSTAR":-6.9569e-5,"MEAN_MOTION_DOT":-1.89e-6,"MEAN_MOTION_DDOT":0},{"OBJECT_NAME":"ARIANE 40 R/B","OBJECT_ID":"1993-061H","EPOCH":"2026-03-29T04:20:57.877152","MEAN_MOTION":14.32871337,"ECCENTRICITY":0.0010038,"INCLINATION":98.4881,"RA_OF_ASC_NODE":156.6809,"ARG_OF_PERICENTER":221.3655,"MEAN_ANOMALY":138.677,"EPHEMERIS_TYPE":0,"CLASSIFICATION_TYPE":"U","NORAD_CAT_ID":22830,"ELEMENT_SET_NO":999,"REV_AT_EPOCH":69689,"BSTAR":0.00010655,"MEAN_MOTION_DOT":2.48e-6,"MEAN_MOTION_DDOT":0},{"OBJECT_NAME":"COSMOS 2278","OBJECT_ID":"1994-023A","EPOCH":"2026-03-29T04:30:56.577312","MEAN_MOTION":14.1437544,"ECCENTRICITY":0.000916,"INCLINATION":71.0515,"RA_OF_ASC_NODE":134.3063,"ARG_OF_PERICENTER":343.1459,"MEAN_ANOMALY":16.9358,"EPHEMERIS_TYPE":0,"CLASSIFICATION_TYPE":"U","NORAD_CAT_ID":23087,"ELEMENT_SET_NO":999,"REV_AT_EPOCH":64756,"BSTAR":-7.8414e-5,"MEAN_MOTION_DOT":-1.97e-6,"MEAN_MOTION_DDOT":0},{"OBJECT_NAME":"SL-16 R/B","OBJECT_ID":"1994-023B","EPOCH":"2026-03-29T03:43:27.672096","MEAN_MOTION":14.15015668,"ECCENTRICITY":0.0005474,"INCLINATION":71.0019,"RA_OF_ASC_NODE":30.0056,"ARG_OF_PERICENTER":267.5988,"MEAN_ANOMALY":92.4508,"EPHEMERIS_TYPE":0,"CLASSIFICATION_TYPE":"U","NORAD_CAT_ID":23088,"ELEMENT_SET_NO":999,"REV_AT_EPOCH":64884,"BSTAR":0.00020679,"MEAN_MOTION_DOT":3.53e-6,"MEAN_MOTION_DDOT":0},{"OBJECT_NAME":"SL-16 R/B","OBJECT_ID":"1994-074B","EPOCH":"2026-03-29T01:29:28.382784","MEAN_MOTION":14.79429564,"ECCENTRICITY":0.00073,"INCLINATION":97.7081,"RA_OF_ASC_NODE":118.0931,"ARG_OF_PERICENTER":147.7229,"MEAN_ANOMALY":234.1003,"EPHEMERIS_TYPE":0,"CLASSIFICATION_TYPE":"U","NORAD_CAT_ID":23343,"ELEMENT_SET_NO":999,"REV_AT_EPOCH":69011,"BSTAR":7.5515e-5,"MEAN_MOTION_DOT":5.14e-6,"MEAN_MOTION_DDOT":0},{"OBJECT_NAME":"SL-16 R/B","OBJECT_ID":"1994-077B","EPOCH":"2026-03-29T01:24:16.107264","MEAN_MOTION":14.15569231,"ECCENTRICITY":0.0001931,"INCLINATION":70.9834,"RA_OF_ASC_NODE":311.7427,"ARG_OF_PERICENTER":196.9872,"MEAN_ANOMALY":163.1187,"EPHEMERIS_TYPE":0,"CLASSIFICATION_TYPE":"U","NORAD_CAT_ID":23405,"ELEMENT_SET_NO":999,"REV_AT_EPOCH":61897,"BSTAR":-8.5772e-6,"MEAN_MOTION_DOT":-6.5e-7,"MEAN_MOTION_DDOT":0},{"OBJECT_NAME":"ARIANE 40+ R/B","OBJECT_ID":"1995-021B","EPOCH":"2026-03-29T04:56:40.071840","MEAN_MOTION":14.39786488,"ECCENTRICITY":0.0007905,"INCLINATION":98.4463,"RA_OF_ASC_NODE":159.4209,"ARG_OF_PERICENTER":86.2381,"MEAN_ANOMALY":335.0168,"EPHEMERIS_TYPE":0,"CLASSIFICATION_TYPE":"U","NORAD_CAT_ID":23561,"ELEMENT_SET_NO":999,"REV_AT_EPOCH":62205,"BSTAR":0.00012802,"MEAN_MOTION_DOT":3.58e-6,"MEAN_MOTION_DDOT":0},{"OBJECT_NAME":"SL-16 R/B","OBJECT_ID":"1995-058B","EPOCH":"2026-03-29T04:59:12.256800","MEAN_MOTION":14.15499006,"ECCENTRICITY":0.0010118,"INCLINATION":71.0202,"RA_OF_ASC_NODE":139.28,"ARG_OF_PERICENTER":89.6424,"MEAN_ANOMALY":270.5859,"EPHEMERIS_TYPE":0,"CLASSIFICATION_TYPE":"U","NORAD_CAT_ID":23705,"ELEMENT_SET_NO":999,"REV_AT_EPOCH":57061,"BSTAR":-0.00010267,"MEAN_MOTION_DOT":-2.48e-6,"MEAN_MOTION_DDOT":0},{"OBJECT_NAME":"SL-16 R/B","OBJECT_ID":"1996-051B","EPOCH":"2026-03-29T05:12:17.809056","MEAN_MOTION":14.12421249,"ECCENTRICITY":0.0013491,"INCLINATION":70.7585,"RA_OF_ASC_NODE":133.9094,"ARG_OF_PERICENTER":116.4863,"MEAN_ANOMALY":243.7642,"EPHEMERIS_TYPE":0,"CLASSIFICATION_TYPE":"U","NORAD_CAT_ID":24298,"ELEMENT_SET_NO":999,"REV_AT_EPOCH":52440,"BSTAR":8.982e-5,"MEAN_MOTION_DOT":1.17e-6,"MEAN_MOTION_DDOT":0},{"OBJECT_NAME":"ORBVIEW 2 (SEASTAR)","OBJECT_ID":"1997-037A","EPOCH":"2026-03-29T00:05:52.017792","MEAN_MOTION":14.35508307,"ECCENTRICITY":0.0002396,"INCLINATION":98.8602,"RA_OF_ASC_NODE":252.8311,"ARG_OF_PERICENTER":29.9561,"MEAN_ANOMALY":330.176,"EPHEMERIS_TYPE":0,"CLASSIFICATION_TYPE":"U","NORAD_CAT_ID":24883,"ELEMENT_SET_NO":999,"REV_AT_EPOCH":51124,"BSTAR":0.00012972,"MEAN_MOTION_DOT":3.26e-6,"MEAN_MOTION_DDOT":0},{"OBJECT_NAME":"SL-16 R/B","OBJECT_ID":"1998-043G","EPOCH":"2026-03-29T02:19:10.317216","MEAN_MOTION":14.26054203,"ECCENTRICITY":0.00092,"INCLINATION":98.8286,"RA_OF_ASC_NODE":41.6015,"ARG_OF_PERICENTER":323.6606,"MEAN_ANOMALY":36.3947,"EPHEMERIS_TYPE":0,"CLASSIFICATION_TYPE":"U","NORAD_CAT_ID":25400,"ELEMENT_SET_NO":999,"REV_AT_EPOCH":44175,"BSTAR":4.8776e-5,"MEAN_MOTION_DOT":7.1e-7,"MEAN_MOTION_DDOT":0},{"OBJECT_NAME":"SL-16 R/B","OBJECT_ID":"1998-045B","EPOCH":"2026-03-29T05:01:08.178816","MEAN_MOTION":14.16193902,"ECCENTRICITY":0.0007995,"INCLINATION":71.01,"RA_OF_ASC_NODE":140.5278,"ARG_OF_PERICENTER":338.0712,"MEAN_ANOMALY":22.0068,"EPHEMERIS_TYPE":0,"CLASSIFICATION_TYPE":"U","NORAD_CAT_ID":25407,"ELEMENT_SET_NO":999,"REV_AT_EPOCH":42986,"BSTAR":-9.4285e-5,"MEAN_MOTION_DOT":-2.35e-6,"MEAN_MOTION_DDOT":0},{"OBJECT_NAME":"ISS (ZARYA)","OBJECT_ID":"1998-067A","EPOCH":"2026-03-29T03:11:03.043104","MEAN_MOTION":15.4862434,"ECCENTRICITY":0.0006215,"INCLINATION":51.6344,"RA_OF_ASC_NODE":336.2407,"ARG_OF_PERICENTER":245.2164,"MEAN_ANOMALY":114.8178,"EPHEMERIS_TYPE":0,"CLASSIFICATION_TYPE":"U","NORAD_CAT_ID":25544,"ELEMENT_SET_NO":999,"REV_AT_EPOCH":55934,"BSTAR":0.00023326,"MEAN_MOTION_DOT":0.0001226,"MEAN_MOTION_DDOT":0},{"OBJECT_NAME":"CZ-4B R/B","OBJECT_ID":"1999-025C","EPOCH":"2026-03-29T03:17:58.776576","MEAN_MOTION":14.18269059,"ECCENTRICITY":0.0036026,"INCLINATION":98.6586,"RA_OF_ASC_NODE":131.9549,"ARG_OF_PERICENTER":289.445,"MEAN_ANOMALY":135.2842,"EPHEMERIS_TYPE":0,"CLASSIFICATION_TYPE":"U","NORAD_CAT_ID":25732,"ELEMENT_SET_NO":999,"REV_AT_EPOCH":39092,"BSTAR":4.2952e-5,"MEAN_MOTION_DOT":4.6e-7,"MEAN_MOTION_DDOT":0},{"OBJECT_NAME":"OKEAN-O","OBJECT_ID":"1999-039A","EPOCH":"2026-03-29T04:28:12.571968","MEAN_MOTION":14.80366866,"ECCENTRICITY":8.63e-5,"INCLINATION":97.9402,"RA_OF_ASC_NODE":147.8757,"ARG_OF_PERICENTER":92.9154,"MEAN_ANOMALY":267.2157,"EPHEMERIS_TYPE":0,"CLASSIFICATION_TYPE":"U","NORAD_CAT_ID":25860,"ELEMENT_SET_NO":999,"REV_AT_EPOCH":43727,"BSTAR":0.00011911,"MEAN_MOTION_DOT":8.57e-6,"MEAN_MOTION_DDOT":0},{"OBJECT_NAME":"SL-16 R/B","OBJECT_ID":"1999-039B","EPOCH":"2026-03-29T03:32:50.241408","MEAN_MOTION":14.81757578,"ECCENTRICITY":0.001458,"INCLINATION":97.9924,"RA_OF_ASC_NODE":147.2114,"ARG_OF_PERICENTER":189.1889,"MEAN_ANOMALY":170.9059,"EPHEMERIS_TYPE":0,"CLASSIFICATION_TYPE":"U","NORAD_CAT_ID":25861,"ELEMENT_SET_NO":999,"REV_AT_EPOCH":43974,"BSTAR":8.7488e-5,"MEAN_MOTION_DOT":6.37e-6,"MEAN_MOTION_DDOT":0},{"OBJECT_NAME":"DELTA 2 R/B","OBJECT_ID":"1999-041E","EPOCH":"2026-03-29T01:13:18.103008","MEAN_MOTION":14.11880849,"ECCENTRICITY":0.0502663,"INCLINATION":51.7607,"RA_OF_ASC_NODE":223.9376,"ARG_OF_PERICENTER":45.5292,"MEAN_ANOMALY":318.562,"EPHEMERIS_TYPE":0,"CLASSIFICATION_TYPE":"U","NORAD_CAT_ID":25876,"ELEMENT_SET_NO":999,"REV_AT_EPOCH":36576,"BSTAR":0.00019266,"MEAN_MOTION_DOT":9.53e-6,"MEAN_MOTION_DDOT":0}]
