SL-16 R/B               
1 22803U 93059B   26088.09846565 -.00000189  00000+0 -69569-4 0  9996
2 22803  70.9918 330.2002 0017394 188.3592 171.7245 14.17234899682282
ARIANE 40 R/B           
1 22830U 93061H   26088.18122543  .00000248  00000+0  10655-3 0  9997
2 22830  98.4881 156.6809 0010038 221.3655 138.6770 14.32871337696895
COSMOS 2278             
1 23087U 94023A   26088.18815483 -.00000197  00000+0 -78414-4 0  9996
2 23087  71.0515 134.3063 0009160 343.1459  16.9358 14.14375440647569
SL-16 R/B               
1 23088U 94023B   26088.15518139  .00000353  00000+0  20679-3 0  9993
2 23088  71.0019  30.0056 0005474 267.5988  92.4508 14.15015668648845
SL-16 R/B               
1 23343U 94074B   26088.06213406  .00000514  00000+0  75515-4 0  9991
2 23343  97.7081 118.0931 0007300 147.7229 234.1003 14.79429564690115
SL-16 R/B               
1 23405U 94077B   26088.05851976 -.00000065  00000+0 -85772-5 0  9992
2 23405  70.9834 311.7427 0001931 196.9872 163.1187 14.15569231618973
ARIANE 40+ R/B          
1 23561U 95021B   26088.20601935  .00000358  00000+0  12802-3 0  9995
2 23561  98.4463 159.4209 0007905  86.2381 335.0168 14.39786488622051
SL-16 R/B               
1 23705U 95058B   26088.20778075 -.00000248  00000+0 -10267-3 0  9998
2 23705  71.0202 139.2800 0010118  89.6424 270.5859 14.15499006570612
SL-16 R/B               
1 24298U 96051B   26088.21687279  .00000117  00000+0  89820-4 0  9991
2 24298  70.7585 133.9094 0013491 116.4863 243.7642 14.12421249524408
ORBVIEW 2 (SEASTAR)     
1 24883U 97037A   26088.00407428  .00000326  00000+0  12972-3 0  9994
2 24883  98.8602 252.8311 0002396  29.9561 330.1760 14.35508307511243
SL-16 R/B               
1 25400U 98043G   26088.09664719  .00000071  00000+0  48776-4 0  9994
2 25400  98.8286  41.6015 0009200 323.6606  36.3947 14.26054203441758
SL-16 R/B               
1 25407U 98045B   26088.20912244 -.00000235  00000+0 -94285-4 0  9995
2 25407  71.0100 140.5278 0007995 338.0712  22.0068 14.16193902429863
ISS (ZARYA)             
1 25544U 98067A   26088.13267411  .00012260  00000+0  23326-3 0  9998
2 25544  51.6344 336.2407 0006215 245.2164 114.8178 15.48624340559341
CZ-4B R/B               
1 25732U 99025C   26088.13748584  .00000046  00000+0  42952-4 0  9993
2 25732  98.6586 131.9549 0036026 289.4450 135.2842 14.18269059390927
OKEAN-O                 
1 25860U 99039A   26088.18625662  .00000857  00000+0  11911-3 0  9996
2 25860  97.9402 147.8757 0000863  92.9154 267.2157 14.80366866437271
SL-16 R/B               
1 25861U 99039B   26088.14780372  .00000637  00000+0  87488-4 0  9992
2 25861  97.9924 147.2114 0014580 189.1889 170.9059 14.81757578439747
DELTA 2 R/B             
1 25876U 99041E   26088.05090397  .00000953  00000+0  19266-3 0  9991
2 25876  51.7607 223.9376 0502663  45.5292 318.5620 14.11880849365763
